{
  "norad_id": 63039,
  "name": "STARLINK-32811",
  "history": [
    {
      "epoch": "2026-03-28T11:48:26.130240Z",
      "apogee_km": 476.20606509041954,
      "perigee_km": 474.13773646416576,
      "latitude_deg": 2.954716657615225e-05,
      "longitude_deg": 167.90120337461565,
      "height_km": 475.84980928017444,
      "semi_major_axis_km": 6853.308900777292,
      "eccentricity": 0.0001509,
      "inclination_deg": 53.16,
      "raan_deg": 170.9217,
      "arg_perigee_deg": 77.7238,
      "mean_anomaly_deg": 282.3932,
      "mean_motion_rev_day": 15.30214458
    }
  ]
}